GSAT0101 (PRN E11)      
1 37846U 11060A   21079.82022133 -.00000061  00000-0  00000-0 0  9994
2 37846  56.7938  33.7034 0004399 340.9342  19.0347  1.70475364 58484
GSAT0102 (PRN E12)      
1 37847U 11060B   21079.45820108 -.00000062  00000-0  00000+0 0  9992
2 37847  56.7946  33.7127 0005750 322.0344 221.9736  1.70475576 58607
GSAT0103 (PRN E19)      
1 38857U 12055A   21078.10211101  .00000008  00000-0  00000-0 0  9997
2 38857  55.0243 154.2224 0003990 260.0113 100.0070  1.70473765 52348
GSAT0104 (PRN E20)      
1 38858U 12055B   21080.38289657  .00000010  00000-0  00000-0 0  9995
2 38858  55.0256 154.1592 0002795 264.2835  95.7442  1.70473649 52398
GSAT0201 (PRN E18)      
1 40128U 14050A   21078.83144159 -.00000101  00000-0  00000-0 0  9991
2 40128  50.5060 350.3948 1650971 108.3304 270.2644  1.85518876 42788
GSAT0202 (PRN E14)      
1 40129U 14050B   21080.17213597 -.00000093  00000-0  00000-0 0  9995
2 40129  50.5380 349.3880 1648352 109.1829 269.3249  1.85520036 44972
GSAT0203 (PRN E26)      
1 40544U 15017A   21079.01494301 -.00000064  00000-0  00000-0 0  9993
2 40544  56.5879  33.8209 0004462 280.1421  79.7920  1.70474741 36556
GSAT0204 (PRN E22)      
1 40545U 15017B   21079.96893751 -.00000061  00000-0  00000-0 0  9997
2 40545  56.5948  33.8117 0001954 270.6639  89.2993  1.70475141 37237
GSAT0205 (PRN E24)      
1 40889U 15045A   21079.62402617  .00000033  00000-0  00000-0 0  9997
2 40889  55.9417 274.4877 0005819  25.1877 334.8474  1.70475214 34375
GSAT0206 (PRN E30)      
1 40890U 15045B   21079.84352371  .00000034  00000-0  00000-0 0  9995
2 40890  55.9403 274.4783 0003843  24.5519 335.4737  1.70475372 34407
GSAT0209 (PRN E09)      
1 41174U 15079A   21078.84427913  .00000009  00000-0  00000-0 0  9994
2 41174  55.0400 153.9019 0004447 305.2177  54.8030  1.70473822 32127
GSAT0208 (PRN E08)      
1 41175U 15079B   21080.23713307  .00000010  00000-0  00000-0 0  9998
2 41175  55.0383 153.8628 0003688 304.2897  55.7355  1.70473921 32565
GSAT0211 (PRN E02)      
1 41549U 16030A   21079.77177296  .00000035  00000-0  00000-0 0  9996
2 41549  56.0842 274.3653 0003765 354.3203   5.6825  1.70474972 30034
GSAT0210 (PRN E01)      
1 41550U 16030B   21079.47803792  .00000033  00000-0  00000-0 0  9990
2 41550  56.0841 274.3750 0002049 332.8737  27.1218  1.70475126 30026
GSAT0207 (PRN E07)      
1 41859U 16069A   21080.31012784  .00000009  00000-0  00000-0 0  9995
2 41859  54.7001 154.1551 0004551 291.0883  68.9225  1.70473818 26777
GSAT0212 (PRN E03)      
1 41860U 16069B   21079.57697962  .00000009  00000-0  00000-0 0  9990
2 41860  54.6964 154.1739 0003256 313.0926  46.9407  1.70473842 27011
GSAT0213 (PRN E04)      
1 41861U 16069C   21079.35608896  .00000008  00000-0  00000-0 0  9994
2 41861  54.6985 154.1845 0004066 268.9825  91.0317  1.70473899 26875
GSAT0214 (PRN E05)      
1 41862U 16069D   21078.91655049  .00000008  00000-0  00000-0 0  9998
2 41862  54.6968 154.1918 0003211 272.9331  87.0918  1.70473914 26999
GSAT0215 (PRN E21)      
1 43055U 17079A   21078.82060565  .00000029  00000-0  00000-0 0  9992
2 43055  56.0600 274.2309 0001488 344.3027  15.6967  1.70474230 20337
GSAT0216 (PRN E25)      
1 43056U 17079B   21077.93999347  .00000024  00000-0  00000-0 0  9998
2 43056  56.0611 274.2546 0002795 307.2877  52.6889  1.70474353 20336
GSAT0217 (PRN E27)      
1 43057U 17079C   21076.98693555  .00000019  00000-0  00000+0 0  9998
2 43057  56.0612 274.2813 0003059 327.9623  32.0200  1.70474266 20306
GSAT0218 (PRN E31)      
1 43058U 17079D   21079.55328182  .00000033  00000-0  00000+0 0  9992
2 43058  56.0585 274.2079 0002996 296.9632  63.0123  1.70474316 20342
GSAT0221 (PRN E15)      
1 43564U 18060A   21080.03824125 -.00000060  00000-0  00000-0 0  9990
2 43564  56.9735  33.4921 0005478 291.5488  68.3785  1.70475698 16531
GSAT0222 (PRN E33)      
1 43565U 18060B   21079.08491022 -.00000063  00000-0  00000-0 0  9993
2 43565  56.9753  33.5177 0005394 298.4005  61.5295  1.70475753 16560
GSAT0219 (PRN E36)      
1 43566U 18060C   21079.30549423 -.00000063  00000-0  00000-0 0  9998
2 43566  56.9763  33.5136 0005068 300.7122  59.2227  1.70475699 16548
GSAT0220 (PRN E13)      
1 43567U 18060D   21080.11185657 -.00000060  00000-0  00000-0 0  9992
2 43567  56.9751  33.4925 0005135 296.2977  63.6352  1.70475767 16547
